1 43402U 12052B   23181.66419038  .00001902  00000-0  57359-3 0  9999
2 43402  97.9990 334.8220 0236099  62.2197 300.2707 14.28643874556985
1 43369U 01056N   23183.74194773  .00003935  00000-0  18380-2 0  9998
2 43369  99.3359   4.1863 0089605 166.7350 207.8261 14.18863934953722
1 43331U 88033M   23182.73862042  .00000331  00000-0  60512-3 0  9998
2 43331  90.3195 345.1859 0169727 328.3894  42.6348 13.33723439933298
1 43315U 85094Z   23182.57443272  .00000192  00000-0  93347-3 0  9993
2 43315  82.5646 135.4072 0023792 299.0848  60.7864 12.68619081444650
1 43309U 84072U   23183.93014270  .00001473  00000-0  11534-2 0  9994
2 43309  82.5293 166.2094 0021978 163.3376 196.8515 13.91359527412618
1 43292U 71120W   23183.81893399  .00048867  00000-0  19795-2 0  9994
2 43292  81.2277 329.7388 0005062 113.0940 247.0827 15.24440266451510
1 43291U 71120V   23179.45075042  .07701447  12647+0  23939-1 0  9995
2 43291  81.2378 331.7915 0024034 302.3294  57.5651 15.97458607450612
1 43161U 18008G   23183.50190943  .00001152  00000-0  22031-3 0  9990
2 43161  98.2290 208.1557 0375054  72.1186 292.0521 14.29190319284121
1 42680U 16049E   23183.75054497  .00001475  00000-0  43984-3 0  9996
2 42680  98.4276 184.9713 0018474 154.5760 205.6343 14.44382152359940
1 42652U 75052MM  23180.37014098  .00000178  00000-0  44494-3 0  9998
2 42652  99.6864   8.6236 0073912  61.2139  57.4468 13.32442131466871
1 42644U 75052MD  23182.33385413  .00000118  00000-0  38131-3 0  9994
2 42644  99.5739 218.0351 0158472 192.3415 167.3799 13.16941897314218
1 42640U 75052LZ  23180.46306462  .00000591  00000-0  95761-3 0  9996
2 42640  99.7524   3.1747 0218743 207.8276 181.0700 13.43484613470413
1 42613U 74089GE  23177.68943939 -.00000018  00000-0  19926-3 0  9995
2 42613 102.1809 157.9176 0067686  37.6464 137.2431 12.43741444436343
1 42597U 74089FN  23182.18401766  .00000198  00000-0  11444-2 0  9998
2 42597 101.4313 156.8251 0198500  66.7578 295.4270 12.68841882991187
1 42584U 73086HY  23183.93943907 -.00000041  00000-0  40523-4 0  9992
2 42584 102.3612 171.4010 0020128 129.5599 256.5089 12.36803390414286
1 42537U 70025ST  23183.74624475  .00000834  00000-0  84718-3 0  9997
2 42537 100.0822 357.7203 0008278 148.8012 211.3630 13.80239639903622
1 42534U 70025SQ  23181.49444535  .00000399  00000-0  14726-2 0  9998
2 42534 101.8110 194.8459 0193084 187.8514 171.9544 12.95096449448142
1 42453U 84072P   23175.31078944  .00001909  00000-0  15291-2 0  9992
2 42453  82.5324 178.7361 0010035 190.9245 169.1702 13.90273974425637
1 42440U 66040BT  23182.89806192  .00001641  00000-0  31081-2 0  9996
2 42440 100.2341 335.0034 0052383 251.7590 107.7831 13.39299398358127
1 42439U 66040BS  23181.72844828  .00002083  00000-0  37168-2 0  9996
2 42439 100.2602 357.0496 0037913 218.9283 140.9114 13.43037892377259
1 42431U 00055UB  23179.26580470  .00010231  00000-0  38472-2 0  9991
2 42431  98.9776 323.0140 0038104  60.3195 300.1772 14.31302275354454
1 42421U 00055TR  23178.70213405  .00002550  00000-0  17714-2 0  9990
2 42421  98.8201 167.8897 0090775 243.6222 115.5601 13.97745348338091
1 42402U 00055SW  23182.23471228  .00003043  00000-0  12440-2 0  9990
2 42402  99.0231 335.0415 0038750  66.4991 294.0254 14.27635138381005
1 42381U 00055RZ  23183.50539812  .00010928  00000-0  30408-2 0  9995
2 42381  98.9832  21.0651 0041842 354.0004   6.0679 14.46051756381761
1 42327U 95015JV  23183.83132692  .00003047  00000-0  13190-2 0  9999
2 42327  98.7448 201.7779 0002939 300.1237  59.9651 14.25051094398974
1 42300U 95015HS  23182.03626747  .00003181  00000-0  12781-2 0  9994
2 42300  98.6692 207.5601 0029975 257.9861 101.7960 14.28614091345677
1 42285U 95015HB  23183.81219906  .00002537  00000-0  13469-2 0  9996
2 42285  98.9421 188.2127 0033985 241.4520 118.3230 14.14180357414428
1 42260U 95015GA  23182.43977612  .00033854  00000-0  39479-2 0  9996
2 42260  98.7229 352.3111 0068541  93.1441 267.7615 14.83408219415739
1 42230U 81053UW  23180.26870392  .00002325  00000-0  13697-2 0  9999
2 42230  82.7501 120.0472 0045161 264.3751  95.2271 14.07065515 20368
1 42203U 81053TT  23181.73357433  .00001329  00000-0  13885-2 0  9990
2 42203  82.9979 339.2680 0121247 207.3885 166.0799 13.71413460 13088
1 42196U 81053TL  23175.75162868  .00001175  00000-0  12298-2 0  9998
2 42196  82.7955 342.8605 0118644 303.5304  55.4560 13.71411242 15030
1 42193U 81053TH  23182.74611331  .00000341  00000-0  37487-3 0  9998
2 42193  82.9538 303.5480 0135476  59.7374 301.7105 13.65516227  9891
1 42170U 81053SJ  23183.17299029 -.00000163  00000-0 -25770-3 0  9993
2 42170  82.7680 340.2589 0197305 314.3572  44.1544 13.46759956883947
1 42140U 81053RC  23178.21852880  .00000673  00000-0  94848-3 0  9995
2 42140  83.1408 152.4160 0198787 227.0780 131.3535 13.48017303930678
1 42104U 81053PQ  23183.69452041  .00000355  00000-0  32181-3 0  9997
2 42104  82.8777 168.6691 0041453 202.8224 157.1094 13.80669405484900
1 42097U 81053PH  23183.68282399  .00003028  00000-0  15728-2 0  9991
2 42097  82.8095 158.1125 0063586 330.0381  29.7162 14.13435309 38163
1 42093U 68114V   23176.27709265  .00004588  00000-0  17013-1 0  9993
2 42093 102.5108 181.9500 0125339 197.2032 162.4789 12.90534690904029
1 42087U 68114P   23182.74918753  .00000274  00000-0  23810-2 0  9990
2 42087 101.3724 193.6777 0191448 223.0874 135.5065 12.34506856820302
1 41921U 17003E   23183.45334976  .00000274  00000-0  90957-4 0  9993
2 41921  86.3994 148.5118 0002241  84.0605 276.0846 14.34215287340230
1 41917U 17003A   23183.45090711  .00000152  00000-0  47282-4 0  9992
2 41917  86.3996 180.1558 0001984  94.1849 265.9574 14.34219809338306
1 41892U 16078J   23183.48383123  .00004850  00000-0  21008-3 0  9996
2 41892  34.9527 324.9536 0011269 278.5574  81.3863 15.21723602362914
1 41889U 16078F   23183.49075192  .00019493  00000-0  69944-3 0  9997
2 41889  34.9568 330.6435 0010369 274.5100  85.4430 15.27760877362857
1 41888U 16078E   23182.84431962  .00004750  00000-0  21150-3 0  9992
2 41888  34.9503 346.7816 0013797 269.6221  90.2911 15.20760231362599
1 41858U 16068B   23183.98061301  .00000143  00000-0  63537-4 0  9998
2 41858  98.5719 173.0340 0034231 145.4414 214.9007 14.36188709347869
1 41420U 00055KZ  23183.33750968  .00007786  00000-0  23167-2 0  9998
2 41420  98.9443 359.0691 0044246 328.1424  31.7089 14.42862665386994
1 41418U 00055KX  23183.89836145  .00003854  00000-0  15145-2 0  9997
2 41418  99.0333 345.7027 0038857  62.3471 298.1646 14.29482769381728
1 41406U 00055KK  23181.65160755  .00004037  00000-0  15486-2 0  9995
2 41406  98.9451 323.7746 0042316  27.5121 332.8288 14.30592257382600
1 41404U 00055KH  23182.91991646  .00004176  00000-0  16575-2 0  9998
2 41404  99.0327 342.6411 0040326 114.4828 246.0566 14.28890391382310
1 41305U 00055HH  23182.76009144  .00002146  00000-0  12938-2 0  9998
2 41305  98.6878 188.9592 0044187  99.5433 261.0734 14.07199021384800
1 41280U 00055GG  23183.50755476  .00002272  00000-0  13098-2 0  9997
2 41280  98.6747 199.7802 0035823  56.7941 303.6656 14.09745269386336
1 41277U 00055GD  23182.36615199  .00003881  00000-0  15414-2 0  9994
2 41277  98.9625 322.1139 0046856  88.6865 271.9683 14.28734227390674
1 41207U 00055DL  23183.44330769  .00004168  00000-0  13311-2 0  9997
2 41207  98.9463 353.6088 0062988 307.0032  52.5400 14.39116504395014
1 41184U 15081F   23182.83214798  .00000694  00000-0  19475-3 0  9999
2 41184  47.0007 331.5660 0001217 316.9627  43.1162 14.55764147401261
1 41078U 00055AM  23183.06096205  .00000277  00000-0  33893-3 0  9990
2 41078  98.8537  25.8970 0291071 293.2574  63.8171 13.57010390376051
1 41008U 99025EXN 23176.79540169  .00000689  00000-0  42992-3 0  9990
2 41008  99.2433   2.7923 0516232 311.7981  44.0129 13.57347775442062
1 40935U 15052F   23182.49063484  .00003455  00000-0  35121-3 0  9990
2 40935   6.0052 322.3947 0009663 183.9336 176.0716 14.81014864419642
1 40912U 15049P   23184.14270498  .00034917  00000-0  73232-3 0  9992
2 40912  97.4145 202.2521 0008403  42.8249 317.3653 15.45279308432074
1 40771U 76077GQ  23181.42316286  .00000024  00000-0  51611-3 0  9996
2 40771 102.0524 150.8911 0015651  56.7214  93.8749 12.39843636404534
1 40769U 76077GN  23181.39597083  .00000115  00000-0  11608-2 0  9997
2 40769 101.9273 151.6001 0007977 265.1544 248.2341 12.42324143953492
1 40764U 76077GH  23183.15620093 -.00000053  00000-0 -56524-4 0  9997
2 40764 102.0504 152.5323 0000588 327.2504  32.8523 12.40611532767761
1 40708U 84072K   23183.28222041  .00001187  00000-0  92807-3 0  9994
2 40708  82.5215 163.2968 0021207 115.7206 244.6151 13.91305429423338
1 40706U 84072H   23183.93349938  .00000911  00000-0  71187-3 0  9991
2 40706  82.5233 164.9094 0015125 164.9905 195.1711 13.91162454438616
1 40705U 84072G   23183.92959771  .00001308  00000-0  10235-2 0  9998
2 40705  82.5265 163.8477 0010077 207.2123 152.8515 13.91395831436737
1 40609U 95015FG  23182.84468973  .00003461  00000-0  14775-2 0  9994
2 40609  98.7450 201.1644 0000761  28.4556 331.6665 14.25693128429642
1 40600U 95015EX  23183.50777742  .00003392  00000-0  17126-2 0  9992
2 40600  98.9030 199.3354 0041411 276.0025  83.6430 14.16467563424971
1 40529U 00047F   23182.72753927  .00000521  00000-0  59211-4 0  9999
2 40529  67.9958 303.9552 0055093  72.2423 288.4719 14.93547300523639
1 40499U 95015CN  23183.82885127  .00003092  00000-0  13425-2 0  9995
2 40499  98.7549 199.5427 0012426 162.3986 197.7626 14.24847880431841
1 40479U 95015BX  23182.99443378  .00000937  00000-0  47694-3 0  9999
2 40479  98.8025 194.0111 0001816 246.6664 113.4320 14.18264157431949
1 40450U 95015BC  23183.97943491  .00001511  00000-0  67574-3 0  9996
2 40450  98.7086 201.6913 0012761 240.3358 119.6551 14.24067443433224
1 40415U 95015AC  23183.45192416  .00001673  00000-0  78967-3 0  9990
2 40415  98.7817 196.2817 0005671 209.3649 150.7210 14.21160048434174
1 40411U 95015Y   23183.26248931  .00000772  00000-0  43553-3 0  9991
2 40411  98.9161 186.0976 0024370 198.3537 161.6758 14.13146822433045
